{
  "type": "FeatureCollection",
  "features": [
    {
      "type": "Feature",
      "properties": {
        "norad_id": 44333,
        "name": "AT&T T-16",
        "group": "intelsat",
        "lat": 0.017910294256281618,
        "lon": 78.06796577078765,
        "alt_km": 35785.73370493796,
        "timestamp": "2025-12-02T07:10:08.777522+00:00",
        "meta_object_name": "AT&T T-16",
        "meta_object_id": "2019-034A",
        "meta_epoch": "2025-12-01T11:37:22.707840",
        "meta_mean_motion": 1.00274591,
        "meta_eccentricity": 7.558e-05,
        "meta_inclination": 0.0318,
        "meta_ra_of_asc_node": 80.5038,
        "meta_arg_of_pericenter": 95.0469,
        "meta_mean_anomaly": 328.5514,
        "meta_ephemeris_type": 0,
        "meta_classification_type": "U",
        "meta_norad_cat_id": 44333,
        "meta_element_set_no": 999,
        "meta_rev_at_epoch": 2365,
        "meta_bstar": 0,
        "meta_mean_motion_dot": -9.4e-07,
        "meta_mean_motion_ddot": 0,
        "tle_line1": "1 44333U 19034A   25335.48429060 -.00000094  00000+0  00000+0 0  9997",
        "tle_line2": "2 44333   0.0318  80.5038 0000755  95.0469 328.5514  1.00274591 23658"
      },
      "geometry": {
        "type": "Point",
        "coordinates": [
          78.06796577078765,
          0.017910294256281618
        ]
      }
    },
    {
      "type": "Feature",
      "properties": {
        "norad_id": 44476,
        "name": "INTELSAT 39 (IS-39)",
        "group": "intelsat",
        "lat": -0.037668629478860835,
        "lon": -119.12900297596296,
        "alt_km": 35786.46492723155,
        "timestamp": "2025-12-02T07:10:08.777533+00:00",
        "meta_object_name": "INTELSAT 39 (IS-39)",
        "meta_object_id": "2019-049B",
        "meta_epoch": "2025-12-01T12:23:48.261984",
        "meta_mean_motion": 1.00270512,
        "meta_eccentricity": 8.576e-05,
        "meta_inclination": 0.0174,
        "meta_ra_of_asc_node": 311.7344,
        "meta_arg_of_pericenter": 197.9955,
        "meta_mean_anomaly": 168.8068,
        "meta_ephemeris_type": 0,
        "meta_classification_type": "U",
        "meta_norad_cat_id": 44476,
        "meta_element_set_no": 999,
        "meta_rev_at_epoch": 2314,
        "meta_bstar": 0,
        "meta_mean_motion_dot": 5.5e-07,
        "meta_mean_motion_ddot": 0,
        "tle_line1": "1 44476U 19049B   25335.51653081  .00000055  00000+0  00000+0 0  9993",
        "tle_line2": "2 44476   0.0174 311.7344 0000857 197.9955 168.8068  1.00270512 23142"
      },
      "geometry": {
        "type": "Point",
        "coordinates": [
          -119.12900297596296,
          -0.037668629478860835
        ]
      }
    },
    {
      "type": "Feature",
      "properties": {
        "norad_id": 46114,
        "name": "GALAXY 30 (G-30)",
        "group": "intelsat",
        "lat": 0.033515106305356014,
        "lon": 53.92484496265938,
        "alt_km": 35795.52818718985,
        "timestamp": "2025-12-02T07:10:08.777545+00:00",
        "meta_object_name": "GALAXY 30 (G-30)",
        "meta_object_id": "2020-056C",
        "meta_epoch": "2025-12-01T20:42:04.934304",
        "meta_mean_motion": 1.0027242,
        "meta_eccentricity": 0.0002369,
        "meta_inclination": 0.0148,
        "meta_ra_of_asc_node": 292.7027,
        "meta_arg_of_pericenter": 317.0993,
        "meta_mean_anomaly": 6.6971,
        "meta_ephemeris_type": 0,
        "meta_classification_type": "U",
        "meta_norad_cat_id": 46114,
        "meta_element_set_no": 999,
        "meta_rev_at_epoch": 1931,
        "meta_bstar": 0,
        "meta_mean_motion_dot": 5.8e-07,
        "meta_mean_motion_ddot": 0,
        "tle_line1": "1 46114U 20056C   25335.86255711  .00000058  00000+0  00000+0 0  9993",
        "tle_line2": "2 46114   0.0148 292.7027 0002369 317.0993   6.6971  1.00272420 19313"
      },
      "geometry": {
        "type": "Point",
        "coordinates": [
          53.92484496265938,
          0.033515106305356014
        ]
      }
    },
    {
      "type": "Feature",
      "properties": {
        "norad_id": 54026,
        "name": "GALAXY 33 (G-33)",
        "group": "intelsat",
        "lat": 0.034688669591239576,
        "lon": 45.927421640473895,
        "alt_km": 35793.49256994292,
        "timestamp": "2025-12-02T07:10:08.777557+00:00",
        "meta_object_name": "GALAXY 33 (G-33)",
        "meta_object_id": "2022-128A",
        "meta_epoch": "2025-12-01T16:36:24.071328",
        "meta_mean_motion": 1.00272189,
        "meta_eccentricity": 0.0001899,
        "meta_inclination": 0.012,
        "meta_ra_of_asc_node": 321.4469,
        "meta_arg_of_pericenter": 284.0278,
        "meta_mean_anomaly": 301.4386,
        "meta_ephemeris_type": 0,
        "meta_classification_type": "U",
        "meta_norad_cat_id": 54026,
        "meta_element_set_no": 999,
        "meta_rev_at_epoch": 1176,
        "meta_bstar": 0,
        "meta_mean_motion_dot": 1e-06,
        "meta_mean_motion_ddot": 0,
        "tle_line1": "1 54026U 22128A   25335.69194527  .00000100  00000+0  00000+0 0  9992",
        "tle_line2": "2 54026   0.0120 321.4469 0001899 284.0278 301.4386  1.00272189 11769"
      },
      "geometry": {
        "type": "Point",
        "coordinates": [
          45.927421640473895,
          0.034688669591239576
        ]
      }
    },
    {
      "type": "Feature",
      "properties": {
        "norad_id": 54027,
        "name": "GALAXY 34 (G-34)",
        "group": "intelsat",
        "lat": 0.03799970943911859,
        "lon": 49.919000882985436,
        "alt_km": 35791.52038530998,
        "timestamp": "2025-12-02T07:10:08.777568+00:00",
        "meta_object_name": "GALAXY 34 (G-34)",
        "meta_object_id": "2022-128B",
        "meta_epoch": "2025-12-01T20:45:55.897056",
        "meta_mean_motion": 1.00272949,
        "meta_eccentricity": 0.0001428,
        "meta_inclination": 0.015,
        "meta_ra_of_asc_node": 316.5626,
        "meta_arg_of_pericenter": 289.8338,
        "meta_mean_anomaly": 7.0638,
        "meta_ephemeris_type": 0,
        "meta_classification_type": "U",
        "meta_norad_cat_id": 54027,
        "meta_element_set_no": 999,
        "meta_rev_at_epoch": 1193,
        "meta_bstar": 0,
        "meta_mean_motion_dot": 8e-07,
        "meta_mean_motion_ddot": 0,
        "tle_line1": "1 54027U 22128B   25335.86523029  .00000080  00000+0  00000+0 0  9992",
        "tle_line2": "2 54027   0.0150 316.5626 0001428 289.8338   7.0638  1.00272949 11933"
      },
      "geometry": {
        "type": "Point",
        "coordinates": [
          49.919000882985436,
          0.03799970943911859
        ]
      }
    },
    {
      "type": "Feature",
      "properties": {
        "norad_id": 54243,
        "name": "GALAXY 31 (G-31)",
        "group": "intelsat",
        "lat": 0.03480076934616042,
        "lon": 57.8992921300698,
        "alt_km": 35793.84933586375,
        "timestamp": "2025-12-02T07:10:08.777580+00:00",
        "meta_object_name": "GALAXY 31 (G-31)",
        "meta_object_id": "2022-153A",
        "meta_epoch": "2025-12-01T16:39:46.248192",
        "meta_mean_motion": 1.00271259,
        "meta_eccentricity": 0.0002035,
        "meta_inclination": 0.0129,
        "meta_ra_of_asc_node": 317.4033,
        "meta_arg_of_pericenter": 307.9117,
        "meta_mean_anomaly": 294.4136,
        "meta_ephemeris_type": 0,
        "meta_classification_type": "U",
        "meta_norad_cat_id": 54243,
        "meta_element_set_no": 999,
        "meta_rev_at_epoch": 515,
        "meta_bstar": 0,
        "meta_mean_motion_dot": 0,
        "meta_mean_motion_ddot": 0,
        "tle_line1": "1 54243U 22153A   25335.69428528  .00000000  00000+0  00000+0 0  9991",
        "tle_line2": "2 54243   0.0129 317.4033 0002035 307.9117 294.4136  1.00271259  5158"
      },
      "geometry": {
        "type": "Point",
        "coordinates": [
          57.8992921300698,
          0.03480076934616042
        ]
      }
    },
    {
      "type": "Feature",
      "properties": {
        "norad_id": 54244,
        "name": "GALAXY 32 (G-32)",
        "group": "intelsat",
        "lat": 0.024555652476909464,
        "lon": 87.94837666657406,
        "alt_km": 35794.3394976748,
        "timestamp": "2025-12-02T07:10:08.777592+00:00",
        "meta_object_name": "GALAXY 32 (G-32)",
        "meta_object_id": "2022-153B",
        "meta_epoch": "2025-12-01T11:40:07.444128",
        "meta_mean_motion": 1.00274221,
        "meta_eccentricity": 0.0002517,
        "meta_inclination": 0.0104,
        "meta_ra_of_asc_node": 321.2268,
        "meta_arg_of_pericenter": 339.7507,
        "meta_mean_anomaly": 213.6705,
        "meta_ephemeris_type": 0,
        "meta_classification_type": "U",
        "meta_norad_cat_id": 54244,
        "meta_element_set_no": 999,
        "meta_rev_at_epoch": 1116,
        "meta_bstar": 0,
        "meta_mean_motion_dot": -1.53e-06,
        "meta_mean_motion_ddot": 0,
        "tle_line1": "1 54244U 22153B   25335.48619727 -.00000153  00000+0  00000+0 0  9992",
        "tle_line2": "2 54244   0.0104 321.2268 0002517 339.7507 213.6705  1.00274221 11161"
      },
      "geometry": {
        "type": "Point",
        "coordinates": [
          87.94837666657406,
          0.024555652476909464
        ]
      }
    }
  ]
}